MEAN_MOTION;ECCENTRICITY;INCLINATION;RA_OF_ASC_NODE;ARG_OF_PERICENTER;MEAN_ANOMALY;BSTAR;MEAN_MOTION_DOT;MEAN_MOTION_DDOT;TYPE
14.32777393;7.74E-5;45.009;231.889;95.1599;264.9336;7.765E-5;7.3E-7;0;Orbcomm
14.32777656;7.9E-5;45.0091;229.9225;99.2752;260.8183;8.0767E-5;8.1E-7;0;Orbcomm
14.3277797;7.87E-5;45.0091;226.9727;107.1819;252.9114;7.9559E-5;7.8E-7;0;Orbcomm
14.32778124;8.01E-5;45.0091;225.334;110.286;249.8072;7.8004E-5;7.4E-7;0;Orbcomm
14.32778371;8.16E-5;45.0091;222.3841;117.3705;242.7225;7.3331E-5;6.1E-7;0;Orbcomm
14.32778491;8.3E-5;45.0091;221.0731;120.2706;239.8222;7.2603E-5;5.9E-7;0;Orbcomm
14.3277881;8.54E-5;45.0092;217.7955;128.3123;231.78;6.9939E-5;5.2E-7;0;Orbcomm
14.32779235;9.01E-5;45.0092;212.8792;140.4328;219.6584;6.6178E-5;4.1E-7;0;Orbcomm
14.32779337;9.16E-5;45.0092;211.5683;143.0068;217.0841;6.6485E-5;4.2E-7;0;Orbcomm
14.32779688;9.68E-5;45.0092;208.2906;148.5742;211.5162;7.1882E-5;5.7E-7;0;Orbcomm
14.32780128;0.0001032;45.0092;203.702;157.5013;202.5878;7.9528E-5;7.8E-7;0;Orbcomm
14.32780669;0.0001134;45.0092;197.4746;166.6158;193.4718;8.5368E-5;9.4E-7;0;Orbcomm
14.32780992;0.000121;45.0093;193.8693;171.8655;188.2211;8.716E-5;9.9E-7;0;Orbcomm
14.32781076;0.0001233;45.0093;192.886;173.2388;186.8475;8.6749E-5;9.8E-7;0;Orbcomm
14.3278155;0.0001315;45.0094;187.9697;179.3116;180.7733;8.5793E-5;9.5E-7;0;Orbcomm
14.32781854;0.0001372;45.0094;184.6922;183.461;176.6227;8.2307E-5;8.6E-7;0;Orbcomm
14.32782127;0.0001416;45.0095;181.7425;187.1006;172.9821;7.8586E-5;7.5E-7;0;Orbcomm
14.3278227;0.000145;45.0095;179.7761;189.1211;170.9609;7.347E-5;6.1E-7;0;Orbcomm
14.32782533;0.0001501;45.0095;176.4986;192.9904;167.0904;6.9273E-5;5.0E-7;0;Orbcomm
14.32782659;0.0001525;45.0095;175.1877;194.5266;165.5537;6.8721E-5;4.8E-7;0;Orbcomm
14.32783031;0.0001602;45.0094;170.5993;199.3943;160.6843;6.6695E-5;4.3E-7;0;Orbcomm
14.32783055;0.0001604;45.0094;170.2716;199.7744;160.304;6.6756E-5;4.3E-7;0;Orbcomm
14.32783525;0.000169;45.0093;165.0275;204.9296;155.1469;7.2319E-5;5.8E-7;0;Orbcomm
14.32783866;0.0001752;45.0092;160.439;209.3499;150.7249;7.5555E-5;6.7E-7;0;Orbcomm
14.32784035;0.0001793;45.0091;157.8169;211.719;148.3548;7.5358E-5;6.7E-7;0;Orbcomm
14.32784103;0.0001811;45.0091;156.5059;212.9421;147.1313;7.4479E-5;6.4E-7;0;Orbcomm
14.32784522;0.0001875;45.009;151.5896;217.4128;142.6588;7.5561E-5;6.7E-7;0;Orbcomm
14.32784522;0.0001875;45.009;151.5896;217.4128;142.6588;7.5561E-5;6.7E-7;0;Orbcomm
14.32785042;0.0001959;45.009;145.0344;223.2707;136.7985;7.0787E-5;5.4E-7;0;Orbcomm
14.3278512;0.000198;45.009;143.7234;224.3424;135.7263;6.8946E-5;4.9E-7;0;Orbcomm
14.32785366;0.0002014;45.0091;140.4459;227.3413;132.7263;6.5464E-5;3.9E-7;0;Orbcomm
14.32785469;0.0002044;45.009;137.8238;229.3084;130.7585;5.8028E-5;1.9E-7;0;Orbcomm
14.32785608;0.0002066;45.0091;135.8573;231.1286;128.9376;5.5873E-5;1.3E-7;0;Orbcomm
14.32785764;0.0002097;45.0091;132.9075;233.3444;126.721;5.263E-5;4.0E-8;0;Orbcomm
14.3278579;0.0002101;45.0091;132.5797;233.4897;126.5756;5.2531E-5;4.0E-8;0;Orbcomm
14.32785911;0.0002123;45.0091;130.9409;234.9743;125.0904;5.4112E-5;8.0E-8;0;Orbcomm
14.32786389;0.0002177;45.0091;125.3689;239.3189;120.7442;6.2091E-5;3.0E-7;0;Orbcomm
14.32786546;0.0002186;45.009;123.7302;240.6047;119.4582;6.5419E-5;3.9E-7;0;Orbcomm
14.32786848;0.0002216;45.009;120.4525;243.0369;117.0251;6.8587E-5;4.8E-7;0;Orbcomm
14.32787235;0.000224;45.009;116.8471;246.0064;114.0547;7.5695E-5;6.8E-7;0;Orbcomm
14.32787607;0.0002243;45.0089;114.2249;247.8312;112.2296;8.1477E-5;8.3E-7;0;Orbcomm
14.32788243;0.000226;45.009;109.6362;251.4542;108.6059;8.9479E-5;1.05E-6;0;Orbcomm
14.32788618;0.000228;45.009;106.3584;253.6543;106.4052;8.7741E-5;1.01E-6;0;Orbcomm
14.32788774;0.0002276;45.009;105.0474;254.7659;105.2935;8.8338E-5;1.02E-6;0;Orbcomm
14.32789319;0.000229;45.0092;100.4586;257.9607;102.0983;8.7978E-5;1.01E-6;0;Orbcomm
14.32789994;0.00023;45.0095;93.2476;263.2876;96.7708;8.4194E-5;9.1E-7;0;Orbcomm
14.32790054;0.0002297;45.0095;92.2644;263.8707;96.1878;8.2186E-5;8.5E-7;0;Orbcomm
14.32790134;0.0002294;45.0095;91.2811;264.5633;95.4952;8.2376E-5;8.6E-7;0;Orbcomm
14.32790493;0.0002289;45.0097;86.6925;267.9273;92.1311;8.0606E-5;8.1E-7;0;Orbcomm
14.32790704;0.0002288;45.0098;84.0704;269.8683;90.1901;8.0584E-5;8.1E-7;0;Orbcomm
14.3279111;0.0002274;45.01;79.1542;273.3184;86.7402;7.8815E-5;7.6E-7;0;Orbcomm
14.32791379;0.0002257;45.01;77.1877;274.7236;85.3353;8.271E-5;8.7E-7;0;Orbcomm
14.32791806;0.0002236;45.0101;73.2546;277.4648;82.5944;8.2701E-5;8.7E-7;0;Orbcomm
14.32792081;0.0002233;45.0102;70.9603;278.8826;81.1767;8.2291E-5;8.6E-7;0;Orbcomm
14.32792421;0.0002197;45.0102;68.0106;281.1074;78.9525;8.1624E-5;8.4E-7;0;Orbcomm
14.32792735;0.000218;45.0103;65.0607;283.1577;76.9026;7.8784E-5;7.6E-7;0;Orbcomm
14.32792989;0.0002164;45.0104;63.0942;284.5302;75.5305;7.8893E-5;7.6E-7;0;Orbcomm
14.32793265;0.0002145;45.0105;60.4721;286.2142;73.8468;7.7811E-5;7.3E-7;0;Orbcomm
14.32793752;0.0002111;45.0107;56.2113;289.0931;70.9687;7.9975E-5;7.9E-7;0;Orbcomm
14.32793778;0.0002103;45.0107;55.8835;289.2992;70.7627;7.9287E-5;7.7E-7;0;Orbcomm
14.32794018;0.0002078;45.0108;53.9171;290.8279;69.2344;8.1664E-5;8.4E-7;0;Orbcomm
14.32794442;0.000204;45.011;49.9841;293.5611;66.502;8.5534E-5;9.5E-7;0;Orbcomm
14.32794549;0.0002028;45.011;49.3286;294.0369;66.0265;8.7734E-5;1.01E-6;0;Orbcomm
14.3279483;0.0002001;45.0111;46.3788;295.8691;64.1949;8.8525E-5;1.03E-6;0;Orbcomm
14.32795046;0.0001966;45.0112;44.7402;297.3079;62.7567;9.1941E-5;1.12E-6;0;Orbcomm
14.32795808;0.0001871;45.0114;36.8743;302.4936;57.5729;8.8507E-5;1.03E-6;0;Orbcomm
14.32795924;0.000186;45.0114;35.8911;303.3528;56.714;8.867E-5;1.03E-6;0;Orbcomm
14.32796267;0.0001805;45.0115;32.2859;305.6567;54.4111;8.3468E-5;8.9E-7;0;Orbcomm
14.32796423;0.0001786;45.0115;30.975;306.6412;53.427;8.3365E-5;8.9E-7;0;Orbcomm
14.32796732;0.0001736;45.0115;27.6975;308.677;51.3921;7.8228E-5;7.5E-7;0;Orbcomm
14.3279715;0.0001668;45.0115;23.1091;311.8703;48.2001;7.3358E-5;6.1E-7;0;Orbcomm
14.3279724;0.0001649;45.0115;21.7982;312.8956;47.1751;7.2088E-5;5.8E-7;0;Orbcomm
14.32797263;0.0001647;45.0115;21.4705;313.1451;46.9258;7.154E-5;5.6E-7;0;Orbcomm
14.32797591;0.0001574;45.0115;16.8821;316.1768;43.8953;6.7869E-5;4.6E-7;0;Orbcomm
14.32797819;0.0001523;45.0114;13.6045;318.0622;42.0107;6.7662E-5;4.5E-7;0;Orbcomm
14.32797855;0.0001503;45.0114;12.6213;318.8053;41.268;6.6663E-5;4.3E-7;0;Orbcomm
14.32798079;0.0001458;45.0114;9.6715;320.6674;39.4066;6.89E-5;4.9E-7;0;Orbcomm
14.32798093;0.0001452;45.0114;9.3437;320.7686;39.3055;6.8293E-5;4.7E-7;0;Orbcomm
14.32798352;0.0001393;45.0114;6.0663;323.0867;36.9884;7.125E-5;5.5E-7;0;Orbcomm
14.32798443;0.0001362;45.0113;4.7552;323.9717;36.1037;7.139E-5;5.6E-7;0;Orbcomm
14.32798626;0.000132;45.0113;3.1166;325.52;34.556;7.4995E-5;6.6E-7;0;Orbcomm
14.32798955;0.0001259;45.0113;359.8389;327.4213;32.6555;7.8121E-5;7.4E-7;0;Orbcomm
14.32798998;0.0001254;45.0113;359.5112;327.8204;32.2566;7.8932E-5;7.6E-7;0;Orbcomm
14.32799534;0.0001159;45.0112;354.9228;331.2338;28.8444;8.2866E-5;8.7E-7;0;Orbcomm
14.3279964;0.0001137;45.0112;353.9396;332.1785;27.9;8.2772E-5;8.7E-7;0;Orbcomm
14.32799987;0.000106;45.0111;350.3344;334.1861;25.8932;7.9138E-5;7.7E-7;0;Orbcomm
14.32800128;0.0001033;45.0111;349.0234;335.3707;24.709;7.8137E-5;7.4E-7;0;Orbcomm
14.32800481;9.54E-5;45.011;345.4181;337.7873;22.2932;7.5282E-5;6.6E-7;0;Orbcomm
14.32800896;8.65E-5;45.0109;341.1573;340.8466;19.2347;7.2638E-5;5.9E-7;0;Orbcomm
14.3280099;8.49E-5;45.0108;339.8463;341.9897;18.0919;7.1404E-5;5.6E-7;0;Orbcomm
14.32801284;7.59E-5;45.0107;335.2578;345.1086;14.9737;6.8245E-5;4.7E-7;0;Orbcomm
14.32801428;6.81E-5;45.0106;331.3246;347.875;12.208;6.3184E-5;3.3E-7;0;Orbcomm
14.32801463;6.68E-5;45.0106;330.6691;348.3676;11.7154;6.3124E-5;3.3E-7;0;Orbcomm
14.32801626;5.78E-5;45.0105;327.0637;351.0875;8.9961;6.1223E-5;2.8E-7;0;Orbcomm
14.32801704;5.74E-5;45.0105;326.736;351.4894;8.5942;6.53E-5;3.9E-7;0;Orbcomm
14.32801742;5.58E-5;45.0105;326.0805;352.0374;8.0463;6.5261E-5;3.9E-7;0;Orbcomm
14.3280193;4.67E-5;45.0104;322.1473;355.4396;4.6446;6.2289E-5;3.1E-7;0;Orbcomm
14.32802274;3.57E-5;45.0104;317.2309;1.0411;359.0436;6.142E-5;2.8E-7;0;Orbcomm
14.32802305;3.45E-5;45.0104;316.9031;1.5439;358.5408;6.1275E-5;2.8E-7;0;Orbcomm
14.32802708;2.56E-5;45.0104;312.6422;7.3464;352.7386;6.31E-5;3.3E-7;0;Orbcomm
14.32803179;1.56E-5;45.0104;308.0536;16.5671;343.518;6.317E-5;3.3E-7;0;Orbcomm
14.32803617;7.6E-6;45.0104;303.465;41.3563;318.7289;6.1783E-5;2.9E-7;0;Orbcomm
14.32803697;7.5E-6;45.0103;302.8094;46.0541;314.0311;6.3067E-5;3.3E-7;0;Orbcomm
14.32804136;6.2E-6;45.0103;298.5486;127.7378;232.3474;6.505E-5;3.8E-7;0;Orbcomm
14.32804566;1.42E-5;45.0102;293.9599;166.6786;193.4064;6.8447E-5;4.8E-7;0;Orbcomm
14.32804948;2.4E-5;45.0101;289.0435;178.9636;181.1211;7.0705E-5;5.4E-7;0;Orbcomm
14.32804948;2.4E-5;45.0101;289.0435;178.9636;181.1211;7.0705E-5;5.4E-7;0;Orbcomm
14.32805171;3.0E-5;45.0101;286.0936;183.8916;176.1928;7.188E-5;5.7E-7;0;Orbcomm
14.32805291;3.36E-5;45.0101;284.4548;185.7019;174.3823;7.2217E-5;5.8E-7;0;Orbcomm
14.32805535;4.06E-5;45.01;281.1771;189.5948;170.4891;7.1499E-5;5.6E-7;0;Orbcomm
14.32805637;4.28E-5;45.01;279.8662;190.425;169.6588;7.1904E-5;5.7E-7;0;Orbcomm
14.32805893;5.01E-5;45.01;276.5885;193.9568;166.1264;6.9977E-5;5.2E-7;0;Orbcomm
14.32806024;5.23E-5;45.01;275.2775;194.7365;165.3466;7.0812E-5;5.4E-7;0;Orbcomm
14.32806447;6.16E-5;45.01;270.6889;198.6087;161.4737;6.9031E-5;4.9E-7;0;Orbcomm
14.32806746;6.86E-5;45.01;267.4113;201.5845;158.4972;6.6885E-5;4.3E-7;0;Orbcomm
14.32806886;7.07E-5;45.01;266.1004;202.4526;157.629;6.7585E-5;4.5E-7;0;Orbcomm
14.32807301;7.95E-5;45.01;261.5118;206.2239;153.8567;6.6115E-5;4.1E-7;0;Orbcomm
14.32807738;8.89E-5;45.0099;256.5955;209.8657;150.2139;6.6513E-5;4.2E-7;0;Orbcomm
14.3280807;9.7E-5;45.0098;252.0069;213.0374;147.0412;6.704E-5;4.4E-7;0;Orbcomm
14.32808209;0.0001023;45.0097;248.7294;214.8926;145.1853;6.3336E-5;3.4E-7;0;Orbcomm
14.32808207;0.0001057;45.0097;247.4184;216.0274;144.0501;5.9575E-5;2.3E-7;0;Orbcomm
